ORBCOMM FM20            
1 25416U 98046D   24316.20683274  .00003699  00000+0  13022-2 0  9999
2 25416  44.9923 132.8881 0001027 197.2578 162.8235 14.36262792372912
ORBCOMM FM16            
1 25417U 98046E   24316.57561397  .00004311  00000+0  14691-2 0  9996
2 25417  44.9918 125.2991 0004058 263.3256  96.7130 14.37613461372924
ORBCOMM FM15            
1 25418U 98046F   24316.77920858  .00004243  00000+0  14560-2 0  9999
2 25418  44.9954 128.8660 0003566 265.4991  94.5450 14.37298695373121
ORBCOMM FM14            
1 25419U 98046G   24316.49819271  .00005031  00000+0  17083-2 0  9994
2 25419  44.9944 128.9921 0002773 245.4717 114.5842 14.37567789372877
ORBCOMM FM13            
1 25420U 98046H   24316.58024352  .00003999  00000+0  13948-2 0  9991
2 25420  44.9956 134.6628 0004830 251.9212 108.1110 14.36586057371939
ORBCOMM FM21            
1 25475U 98053A   24316.19911116  .00004102  00000+0  14348-2 0  9991
2 25475  45.0074 221.1251 0000504 282.1080  77.9711 14.36408979365893
ORBCOMM FM22            
1 25476U 98053B   24316.79216319  .00004180  00000+0  14388-2 0  9991
2 25476  45.0068 214.7165 0001907 213.1283 146.9445 14.37178613366348
ORBCOMM FM23            
1 25477U 98053C   24316.77704876  .00004162  00000+0  14524-2 0  9992
2 25477  45.0073 220.7453 0001163 224.3793 135.6962 14.36497274366431
