<?xml version="1.0" encoding="UTF-8"?>
<ndm xmlns:xsi="http://www.w3.org/2001/XMLSchema-instance" xsi:noNamespaceSchemaLocation="https://sanaregistry.org/r/ndmxml_unqualified/ndmxml-2.0.0-master-2.0.xsd">
<omm id="CCSDS_OMM_VERS" version="2.0">
<header><CREATION_DATE/><ORIGINATOR/></header><body><segment><metadata><OBJECT_NAME>ORBCOMM FM20</OBJECT_NAME><OBJECT_ID>1998-046D</OBJECT_ID><CENTER_NAME>EARTH</CENTER_NAME><REF_FRAME>TEME</REF_FRAME><TIME_SYSTEM>UTC</TIME_SYSTEM><MEAN_ELEMENT_THEORY>SGP4</MEAN_ELEMENT_THEORY></metadata><data><meanElements><EPOCH>2024-11-11T04:57:50.348736</EPOCH><MEAN_MOTION>14.36262792</MEAN_MOTION><ECCENTRICITY>.0001027</ECCENTRICITY><INCLINATION>44.9923</INCLINATION><RA_OF_ASC_NODE>132.8881</RA_OF_ASC_NODE><ARG_OF_PERICENTER>197.2578</ARG_OF_PERICENTER><MEAN_ANOMALY>162.8235</MEAN_ANOMALY></meanElements><tleParameters><EPHEMERIS_TYPE>0</EPHEMERIS_TYPE><CLASSIFICATION_TYPE>U</CLASSIFICATION_TYPE><NORAD_CAT_ID>25416</NORAD_CAT_ID><ELEMENT_SET_NO>999</ELEMENT_SET_NO><REV_AT_EPOCH>37291</REV_AT_EPOCH><BSTAR>.13022E-2</BSTAR><MEAN_MOTION_DOT>.3699E-4</MEAN_MOTION_DOT><MEAN_MOTION_DDOT>0</MEAN_MOTION_DDOT></tleParameters></data></segment></body></omm>
<omm id="CCSDS_OMM_VERS" version="2.0">
<header><CREATION_DATE/><ORIGINATOR/></header><body><segment><metadata><OBJECT_NAME>ORBCOMM FM16</OBJECT_NAME><OBJECT_ID>1998-046E</OBJECT_ID><CENTER_NAME>EARTH</CENTER_NAME><REF_FRAME>TEME</REF_FRAME><TIME_SYSTEM>UTC</TIME_SYSTEM><MEAN_ELEMENT_THEORY>SGP4</MEAN_ELEMENT_THEORY></metadata><data><meanElements><EPOCH>2024-11-11T13:48:53.047008</EPOCH><MEAN_MOTION>14.37613461</MEAN_MOTION><ECCENTRICITY>.0004058</ECCENTRICITY><INCLINATION>44.9918</INCLINATION><RA_OF_ASC_NODE>125.2991</RA_OF_ASC_NODE><ARG_OF_PERICENTER>263.3256</ARG_OF_PERICENTER><MEAN_ANOMALY>96.7130</MEAN_ANOMALY></meanElements><tleParameters><EPHEMERIS_TYPE>0</EPHEMERIS_TYPE><CLASSIFICATION_TYPE>U</CLASSIFICATION_TYPE><NORAD_CAT_ID>25417</NORAD_CAT_ID><ELEMENT_SET_NO>999</ELEMENT_SET_NO><REV_AT_EPOCH>37292</REV_AT_EPOCH><BSTAR>.14691E-2</BSTAR><MEAN_MOTION_DOT>.4311E-4</MEAN_MOTION_DOT><MEAN_MOTION_DDOT>0</MEAN_MOTION_DDOT></tleParameters></data></segment></body></omm>
<omm id="CCSDS_OMM_VERS" version="2.0">
<header><CREATION_DATE/><ORIGINATOR/></header><body><segment><metadata><OBJECT_NAME>ORBCOMM FM15</OBJECT_NAME><OBJECT_ID>1998-046F</OBJECT_ID><CENTER_NAME>EARTH</CENTER_NAME><REF_FRAME>TEME</REF_FRAME><TIME_SYSTEM>UTC</TIME_SYSTEM><MEAN_ELEMENT_THEORY>SGP4</MEAN_ELEMENT_THEORY></metadata><data><meanElements><EPOCH>2024-11-11T18:42:03.621312</EPOCH><MEAN_MOTION>14.37298695</MEAN_MOTION><ECCENTRICITY>.0003566</ECCENTRICITY><INCLINATION>44.9954</INCLINATION><RA_OF_ASC_NODE>128.8660</RA_OF_ASC_NODE><ARG_OF_PERICENTER>265.4991</ARG_OF_PERICENTER><MEAN_ANOMALY>94.5450</MEAN_ANOMALY></meanElements><tleParameters><EPHEMERIS_TYPE>0</EPHEMERIS_TYPE><CLASSIFICATION_TYPE>U</CLASSIFICATION_TYPE><NORAD_CAT_ID>25418</NORAD_CAT_ID><ELEMENT_SET_NO>999</ELEMENT_SET_NO><REV_AT_EPOCH>37312</REV_AT_EPOCH><BSTAR>.1456E-2</BSTAR><MEAN_MOTION_DOT>.4243E-4</MEAN_MOTION_DOT><MEAN_MOTION_DDOT>0</MEAN_MOTION_DDOT></tleParameters></data></segment></body></omm>
<omm id="CCSDS_OMM_VERS" version="2.0">
<header><CREATION_DATE/><ORIGINATOR/></header><body><segment><metadata><OBJECT_NAME>ORBCOMM FM14</OBJECT_NAME><OBJECT_ID>1998-046G</OBJECT_ID><CENTER_NAME>EARTH</CENTER_NAME><REF_FRAME>TEME</REF_FRAME><TIME_SYSTEM>UTC</TIME_SYSTEM><MEAN_ELEMENT_THEORY>SGP4</MEAN_ELEMENT_THEORY></metadata><data><meanElements><EPOCH>2024-11-11T11:57:23.850144</EPOCH><MEAN_MOTION>14.37567789</MEAN_MOTION><ECCENTRICITY>.0002773</ECCENTRICITY><INCLINATION>44.9944</INCLINATION><RA_OF_ASC_NODE>128.9921</RA_OF_ASC_NODE><ARG_OF_PERICENTER>245.4717</ARG_OF_PERICENTER><MEAN_ANOMALY>114.5842</MEAN_ANOMALY></meanElements><tleParameters><EPHEMERIS_TYPE>0</EPHEMERIS_TYPE><CLASSIFICATION_TYPE>U</CLASSIFICATION_TYPE><NORAD_CAT_ID>25419</NORAD_CAT_ID><ELEMENT_SET_NO>999</ELEMENT_SET_NO><REV_AT_EPOCH>37287</REV_AT_EPOCH><BSTAR>.17083E-2</BSTAR><MEAN_MOTION_DOT>.5031E-4</MEAN_MOTION_DOT><MEAN_MOTION_DDOT>0</MEAN_MOTION_DDOT></tleParameters></data></segment></body></omm>
<omm id="CCSDS_OMM_VERS" version="2.0">
<header><CREATION_DATE/><ORIGINATOR/></header><body><segment><metadata><OBJECT_NAME>ORBCOMM FM13</OBJECT_NAME><OBJECT_ID>1998-046H</OBJECT_ID><CENTER_NAME>EARTH</CENTER_NAME><REF_FRAME>TEME</REF_FRAME><TIME_SYSTEM>UTC</TIME_SYSTEM><MEAN_ELEMENT_THEORY>SGP4</MEAN_ELEMENT_THEORY></metadata><data><meanElements><EPOCH>2024-11-11T13:55:33.040128</EPOCH><MEAN_MOTION>14.36586057</MEAN_MOTION><ECCENTRICITY>.000483</ECCENTRICITY><INCLINATION>44.9956</INCLINATION><RA_OF_ASC_NODE>134.6628</RA_OF_ASC_NODE><ARG_OF_PERICENTER>251.9212</ARG_OF_PERICENTER><MEAN_ANOMALY>108.1110</MEAN_ANOMALY></meanElements><tleParameters><EPHEMERIS_TYPE>0</EPHEMERIS_TYPE><CLASSIFICATION_TYPE>U</CLASSIFICATION_TYPE><NORAD_CAT_ID>25420</NORAD_CAT_ID><ELEMENT_SET_NO>999</ELEMENT_SET_NO><REV_AT_EPOCH>37193</REV_AT_EPOCH><BSTAR>.13948E-2</BSTAR><MEAN_MOTION_DOT>.3999E-4</MEAN_MOTION_DOT><MEAN_MOTION_DDOT>0</MEAN_MOTION_DDOT></tleParameters></data></segment></body></omm>
<omm id="CCSDS_OMM_VERS" version="2.0">
<header><CREATION_DATE/><ORIGINATOR/></header><body><segment><metadata><OBJECT_NAME>ORBCOMM FM21</OBJECT_NAME><OBJECT_ID>1998-053A</OBJECT_ID><CENTER_NAME>EARTH</CENTER_NAME><REF_FRAME>TEME</REF_FRAME><TIME_SYSTEM>UTC</TIME_SYSTEM><MEAN_ELEMENT_THEORY>SGP4</MEAN_ELEMENT_THEORY></metadata><data><meanElements><EPOCH>2024-11-11T04:46:43.204224</EPOCH><MEAN_MOTION>14.36408979</MEAN_MOTION><ECCENTRICITY>.0000504</ECCENTRICITY><INCLINATION>45.0074</INCLINATION><RA_OF_ASC_NODE>221.1251</RA_OF_ASC_NODE><ARG_OF_PERICENTER>282.1080</ARG_OF_PERICENTER><MEAN_ANOMALY>77.9711</MEAN_ANOMALY></meanElements><tleParameters><EPHEMERIS_TYPE>0</EPHEMERIS_TYPE><CLASSIFICATION_TYPE>U</CLASSIFICATION_TYPE><NORAD_CAT_ID>25475</NORAD_CAT_ID><ELEMENT_SET_NO>999</ELEMENT_SET_NO><REV_AT_EPOCH>36589</REV_AT_EPOCH><BSTAR>.14348E-2</BSTAR><MEAN_MOTION_DOT>.4102E-4</MEAN_MOTION_DOT><MEAN_MOTION_DDOT>0</MEAN_MOTION_DDOT></tleParameters></data></segment></body></omm>
<omm id="CCSDS_OMM_VERS" version="2.0">
<header><CREATION_DATE/><ORIGINATOR/></header><body><segment><metadata><OBJECT_NAME>ORBCOMM FM22</OBJECT_NAME><OBJECT_ID>1998-053B</OBJECT_ID><CENTER_NAME>EARTH</CENTER_NAME><REF_FRAME>TEME</REF_FRAME><TIME_SYSTEM>UTC</TIME_SYSTEM><MEAN_ELEMENT_THEORY>SGP4</MEAN_ELEMENT_THEORY></metadata><data><meanElements><EPOCH>2024-11-11T19:00:42.899616</EPOCH><MEAN_MOTION>14.37178613</MEAN_MOTION><ECCENTRICITY>.0001907</ECCENTRICITY><INCLINATION>45.0068</INCLINATION><RA_OF_ASC_NODE>214.7165</RA_OF_ASC_NODE><ARG_OF_PERICENTER>213.1283</ARG_OF_PERICENTER><MEAN_ANOMALY>146.9445</MEAN_ANOMALY></meanElements><tleParameters><EPHEMERIS_TYPE>0</EPHEMERIS_TYPE><CLASSIFICATION_TYPE>U</CLASSIFICATION_TYPE><NORAD_CAT_ID>25476</NORAD_CAT_ID><ELEMENT_SET_NO>999</ELEMENT_SET_NO><REV_AT_EPOCH>36634</REV_AT_EPOCH><BSTAR>.14388E-2</BSTAR><MEAN_MOTION_DOT>.418E-4</MEAN_MOTION_DOT><MEAN_MOTION_DDOT>0</MEAN_MOTION_DDOT></tleParameters></data></segment></body></omm>
<omm id="CCSDS_OMM_VERS" version="2.0">
<header><CREATION_DATE/><ORIGINATOR/></header><body><segment><metadata><OBJECT_NAME>ORBCOMM FM23</OBJECT_NAME><OBJECT_ID>1998-053C</OBJECT_ID><CENTER_NAME>EARTH</CENTER_NAME><REF_FRAME>TEME</REF_FRAME><TIME_SYSTEM>UTC</TIME_SYSTEM><MEAN_ELEMENT_THEORY>SGP4</MEAN_ELEMENT_THEORY></metadata><data><meanElements><EPOCH>2024-11-11T18:38:57.012864</EPOCH><MEAN_MOTION>14.36497274</MEAN_MOTION><ECCENTRICITY>.0001163</ECCENTRICITY><INCLINATION>45.0073</INCLINATION><RA_OF_ASC_NODE>220.7453</RA_OF_ASC_NODE><ARG_OF_PERICENTER>224.3793</ARG_OF_PERICENTER><MEAN_ANOMALY>135.6962</MEAN_ANOMALY></meanElements><tleParameters><EPHEMERIS_TYPE>0</EPHEMERIS_TYPE><CLASSIFICATION_TYPE>U</CLASSIFICATION_TYPE><NORAD_CAT_ID>25477</NORAD_CAT_ID><ELEMENT_SET_NO>999</ELEMENT_SET_NO><REV_AT_EPOCH>36643</REV_AT_EPOCH><BSTAR>.14524E-2</BSTAR><MEAN_MOTION_DOT>.4162E-4</MEAN_MOTION_DOT><MEAN_MOTION_DDOT>0</MEAN_MOTION_DDOT></tleParameters></data></segment></body></omm>

</ndm>
